Z9170   20.0   0.15 K14C9  50.08507   53.14323  349.79093   11.91310  0.4652813  0.51324808   1.5449621  1 MPO255434    78   4 2009-2013 0.37 M-v 3Eh MPCALB     8803 (359170) 2009 CN5           20130317
Z9369   18.5   0.15 K14C9 189.51721   67.41355  138.90582    3.38823  0.6979835  0.31354681   2.1458587  1 MPO271158   123   5 2006-2013 0.43 M-h 3Eh MPCLINUX   8803 (359369) 2009 YG            20130831
a0191   20.6   0.15 K14C9 272.60678  105.18598  194.73512    2.53051  0.4786008  0.51582398   1.5398143  1 MPO294737   291   4 1988-2013 0.41 M-h 3Eh MPCLINUX   8803 (360191) 1988 TA            20130509
a1754   18.9   0.15 K14C9 156.87071  321.79006   59.34405   21.88018  0.3567498  0.61267050   1.3729395  2 MPO258898    70   4 2002-2013 0.40 M-v 3Eh MPCALB     8803 (361754) 2007 YV29          20130322
a3024   19.2   0.15 K14C9  73.67816  298.50474  109.72484   13.99123  0.4291433  0.62427350   1.3558744  1 MPO260881    89   4 1998-2012 0.44 M-v 3Eh MPCALB     8803 (363024) 1998 OK1           20120520
a3027   19.5   0.15 K14C9 173.33508  322.45774  197.56834   21.05536  0.5300196  1.32881901   0.8193928  0 MPO260882   330   6 1998-2012 0.56 M-v 3Eh MPCW       8802 (363027) 1998 ST27          20121105
a3067   19.1   0.15 K14C9 187.95911   64.92386  353.07747   15.32344  0.0900458  0.88261703   1.0763525  0 MPO260895   777   5 2000-2011 0.43 M-v 3Eh MPCW       8803 (363067) 2000 CO101         20110511
a3084   19.9   0.15 K14C9 338.92674  192.67728  175.99672    9.28050  0.4276264  0.41265915   1.7867964  0 MPO260902   352   4 2000-2013 0.59 M-v 3Eh MPCW       8804 (363084) 2000 RD53          20130113
a3116   20.1   0.15 K14C9  21.84894  280.25505   37.17197   21.82125  0.5032201  0.73653118   1.2143446  0 MPO260913   439   5 2001-2013 0.62 M-v 3Eh MPCW       8803 (363116) 2001 GQ2           20130502
a3305   21.4   0.15 K14C9 314.34697  179.17737  183.34389    3.50070  0.2198159  0.71619140   1.2372287  0 MPO288351   373   6 2002-2014 0.44 M-h 3Eh MPCLINUX   8803 (363305) 2002 NV16          20140228
a3344   20.0   0.15 K14C9  68.09103  184.40350  336.04631   26.80829  0.1959231  0.77968686   1.1691114  0 MPO260981    92   4 2002-2012 0.59 M-v 3Eh MPCW       8803 (363344) 2002 QC7           20120728
a3505   18.1   0.15 K14C9 168.17849   59.69417  188.45837    3.80084  0.3368773  1.42751163   0.7811773  0 MPO297744   344   8 1954-2012 0.43 M-v 3Eh MPCW       9802 (363505) 2003 UC20          20121212
a3599   21.0   0.15 K14C9  95.43821  227.87898   84.32291    3.11796  0.7241955  0.49261570   1.5878052  0 MPO292022   173   5 2004-2014 0.63 M-v 3Eh MPCW       8803 (363599) 2004 FG11          20140409
a3734   18.7   0.15 K14C9 228.00452  253.24081   62.54980    3.31396  0.7785184  0.45180284   1.6820417  2 MPO261089   132   4 2004-2013 0.44 M-v 3Eh MPCADO     8803 (363734) 2004 XN50          20130603
a3790   17.7   0.15 K14C9 179.23428  114.60309  238.47207    8.26139  0.5527206  0.37536205   1.9032791  0 MPO285602   832   5 1984-2014 0.42 M-v 3Eh MPCW       9803 (363790) 2005 JE46          20140120
a3831   19.2   0.15 K14C9 129.58293  193.45427  159.38962    6.41897  0.5247406  0.35479258   1.9761491  0 MPO261117    48   5 2005-2013 0.29 M-v 3Eh MPCADO     8803 (363831) 2005 PY16          20130609
a4136   20.2   0.15 K14C9 132.32556   29.58956  303.29576   10.24331  0.7549231  1.77129780   0.6765112  0 MPO261196   217   4 2006-2012 0.55 M-v 3Eh MPCW       8802 (364136) 2006 CJ            20120221
a5014   20.2   0.15 K14C9 224.46950  251.85053  220.28765    6.63930  0.6020130  0.91908140   1.0476914  2 MPO300515   153   5 2008-2014 0.39 M-h 3Eh MPCLINUX   8803 (365014) 2008 OX2           20140629
a5071   18.1   0.15 K14C9 284.29273  322.12354  150.75008   45.86571  0.0739668  0.94311503   1.0298159  0 MPO311103   954   7 2009-2014 0.37 M-v 3Eh MPCW       9803 (365071) 2009 AV            20140912
a5424   21.9   0.15 K14C9 327.50356   61.99042   46.54096   21.48779  0.1709911  1.00081724   0.9898427  1 MPO261522    82   4 2010-2013 0.54 M-v 3Eh MPCW       8802 (365424) 2010 KX7           20130522
a6746   20.2   0.15 K14C9 160.64442  256.02273  246.76592   18.28346  0.4615787  0.86949698   1.0871530  2 MPO265246   191   6 2004-2013 0.46 M-v 3Eh MPCALB     8803 (366746) 2004 LJ            20130629
a6774   17.7   0.15 K14C9 359.51866   13.03359  121.03170   13.20725  0.4506312  0.40311180   1.8148986  0 MPO265254   463   5 2004-2013 0.42 M-v 3Eh MPCADO     9803 (366774) 2004 TB18          20130718
a7248   20.0   0.15 K14C9   4.16771  259.93212   95.10745   19.88038  0.1397874  0.95017477   1.0247086  2 MPO265376   291   4 2007-2013 0.41 M-v 3Eh MPCADO     8803 (367248) 2007 MK13          20130612
a7789   21.8   0.15 K14C9  60.80952   53.51930  135.68297    3.68065  0.3902116  0.57591046   1.4307576  0 MPO271163   222   4 2010-2013 0.43 M-h 3Eh MPCLINUX   8803 (367789) 2011 AG5           20130911
a8203   20.4   0.15 K14C9 157.26010  327.80115  243.06588   12.23044  0.6119616  0.25053364   2.4920611  1 MPO266983   109   4 2001-2013 0.47 M-v 3Eh MPCALB     8803 (368203) 2001 KO2           20130802
a8565   20.0   0.15 K14C9 304.11916  243.38027  189.48257   18.30847  0.6003154  0.70945453   1.2450487  2 MPO267084    88   5 2004-2013 0.57 M-v 3Eh MPCALB     8803 (368565) 2004 FE5           20130731
a9057   21.4   0.15 K14C9 206.89128   80.71012  345.86703    4.27555  0.6149877  0.50823051   1.5551140  1 MPO311124   152   5 2008-2014 0.44 M-h 3Eh MPCLINUX   8803 (369057) 2008 DK5           20140426
a9264   16.3   0.15 K14C9  99.67064  219.52479  252.10824   52.40671  0.5696270  0.34707395   2.0053401  1 MPO297749   147   4 2009-2014 0.44 M-h 3Eh MPCLINUX   9803 (369264) 2009 MS            20140521
b1660   21.1   0.15 K14C9 337.39342  135.60476  159.33998    7.58350  0.2694708  0.67034657   1.2930137  0 MPO277057   216   4 2007-2013 0.45 M-h 3Eh MPCLINUX   8803 (371660) 2007 CN26          20131021
b3135   19.5   0.15 K14C9 252.88220   59.37477  203.20108    4.38822  0.4974376  0.46382876   1.6528405  1 MPO277067   186   4 1996-2013 0.49 M-h 3Eh MPCLINUX   8803 (373135) 2011 SD173         20131106
b4038   17.0   0.15 K14C9 140.60647   62.57554  220.20123    0.83066  0.6355170  0.22321866   2.6914257  0 MPO311130   192   4 2004-2013 0.37 M-h 3Eh MPCLINUX   9803 (374038) 2004 HW            20131129
b4158   18.8   0.15 K14C9 349.38502  149.53937   39.60357   23.76821  0.9267004  0.69156556   1.2664279  1 MPO311130   130   8 2001-2014 0.53 M-v 3Eh MPCW       8803 (374158) 2004 UL            20141003
b4851   16.8   0.15 K14C9  37.67662  145.05722    9.86894   23.71862  0.6054161  0.26733961   2.3864949  1 MPO277090  1230   5 2002-2013 0.50 M-v 3Eh MPCW       9803 (374851) 2006 VV2           20131025
b4855   20.0   0.15 K14C9  53.77684   73.77560  233.73833   16.69729  0.4458884  0.85475357   1.0996187  2 MPO281771   149   6 1998-2013 0.42 M-h 3Eh MPCLINUX   8803 (374855) 2006 VQ13          20131214
b5054   20.6   0.15 K14C9  41.79317  251.20172  316.39820   25.60282  0.4163582  0.66605986   1.2985556  1 MPO271784    70   5 2007-2013 0.49 M-v 3Eh MPCALB     8803 (375054) 2007 PF6           20130928
b5103   18.4   0.15 K14C9  35.70443  220.75339   49.59513   49.75352  0.2796620  0.67565536   1.2862318  1 MPO281773   129   5 2003-2013 0.51 M-h 3Eh MPCLINUX   8803 (375103) 2007 TD71          20131129
b7097   19.6   0.15 K14C9 106.56488  244.35423  267.11816    3.94251  0.5552888  0.35939082   1.9592570  0 MPO300522   212   6 1950-2014 0.48 M-h 3Eh MPCLINUX   8803 (377097) 2002 WQ4           20140628
b7732   17.0   0.15 K14C9  94.91880   67.28430  115.99301   23.58063  0.6211543  0.36735690   1.9308294  0 MPO306858   402   5 2005-2014 0.38 M-h 3Eh MPCLINUX   9803 (377732) 2005 XJ8           20140731
b8160   19.6   0.15 K14C9 231.05994  290.93390  328.03260   11.64409  0.3002369  1.12297609   0.9166898  3 MPO294743   153   4 2006-2014 0.42 M-h 3Eh MPCLINUX   C802 (378160) 2006 WX1           20140311
b8358   19.1   0.15 K14C9 133.33054  316.84780  226.26338   16.49149  0.4392160  0.43453618   1.7263099  1 MPO274497    97   4 2007-2013 0.52 M-v 3Eh MPCALB     8803 (378358) 2007 LD            20131111
c0636   19.7   0.15 K14C9 277.68880  115.69589  120.87732   10.74380  0.2665169  1.09650159   0.9313864  2 MPO281824   269   5 2004-2014 0.37 M-h 3Eh MPCLINUX   8802 (380636) 2004 XN14          20140107
c0981   18.6   0.15 K14C9 277.62173  167.69377  107.42914    9.65739  0.3954053  0.43393284   1.7279097  1 MPO277530    76   4 2006-2013 0.52 M-v 3Eh MPCALB     8804 (380981) 2006 SU131         20131128
c1906   17.8   0.15 K14C9 219.50214   76.66457  243.92622    7.31242  0.6457776  0.51430363   1.5428475  2 MPO306858   315   5 2010-2014 0.37 M-h 3Eh MPCLINUX   9803 (381906) 2010 CL19          20140119
c2395   16.2   0.15 K14C9   0.73643  107.60577  136.29859   11.60352  0.7636075  0.32262964   2.1053932  3 MPO278301    44   6 1987-2013 0.67 M-v 3Eh MPCADO     D803 (382395) 1990 SM            20131229
c2406   20.3   0.15 K14C9 274.64734  238.19876   91.03644    2.53732  0.7816489  0.65756748   1.3097121  3 MPO285626    75   6 1996-2014 0.59 M-h 3Eh MPCLINUX   C803 (382406) 1996 AJ1           20140124
c2745   20.4   0.15 K14C9  94.86921  103.17956  136.34269    2.32388  0.3268393  0.53616851   1.5006123  1 MPO306858   147   4 2003-2014 0.47 M-h 3Eh MPCLINUX   8804 (382745) 2003 CC            20140222
c2758   20.2   0.15 K14C9   6.60647  334.01525  322.01081    4.66912  0.3174453  0.60802362   1.3799258  0 MPO278406   254   5 2003-2013 0.54 M-v 3Eh MPCW       8803 (382758) 2003 GY            20131231
c2825   19.4   0.15 K14C9 125.43452  118.25753  108.81793   29.95119  0.3934596  0.59148700   1.4055272  1 MPO300523   174   4 2003-2014 0.45 M-h 3Eh MPCLINUX   8803 (382825) 2003 XB22          20140627
c5186   17.5   0.15 K14C9 141.17080   37.09824  290.39426   24.10004  0.0754188  0.84878579   1.1047669  1 MPO311133   642   4 1994-2014 0.50 M-h 3Eh MPCLINUX   9804 (385186) 1994 AW1           20140925
